{
  "type": "FeatureCollection",
  "features": [
    {
      "type": "Feature",
      "properties": {
        "norad_id": 35089,
        "name": "FENGYUN 1C DEB",
        "group": "fengyun-1c-debris",
        "lat": 50.35881178064259,
        "lon": -5.321740145276071,
        "alt_km": 802.3360089240514,
        "timestamp": "2025-12-21T14:40:48.203994+00:00",
        "meta_object_name": "FENGYUN 1C DEB",
        "meta_object_id": "1999-025DJR",
        "meta_epoch": "2025-12-19T23:31:50.352096",
        "meta_mean_motion": 14.19435221,
        "meta_eccentricity": 0.0028719,
        "meta_inclination": 98.559,
        "meta_ra_of_asc_node": 3.5754,
        "meta_arg_of_pericenter": 44.1764,
        "meta_mean_anomaly": 316.1699,
        "meta_ephemeris_type": 0,
        "meta_classification_type": "U",
        "meta_norad_cat_id": 35089,
        "meta_element_set_no": 999,
        "meta_rev_at_epoch": 60978,
        "meta_bstar": 0.00043746,
        "meta_mean_motion_dot": 8.82e-06,
        "meta_mean_motion_ddot": 0,
        "tle_line1": "1 35089U 99025DJR 25353.98044389  .00000882  00000+0  43746-3 0  9997",
        "tle_line2": "2 35089  98.5590   3.5754 0028719  44.1764 316.1699 14.19435221609787"
      },
      "geometry": {
        "type": "Point",
        "coordinates": [
          -5.321740145276071,
          50.35881178064259
        ]
      }
    },
    {
      "type": "Feature",
      "properties": {
        "norad_id": 35090,
        "name": "FENGYUN 1C DEB",
        "group": "fengyun-1c-debris",
        "lat": -44.76286092841831,
        "lon": 17.866942800849266,
        "alt_km": 807.5973750015892,
        "timestamp": "2025-12-21T14:40:48.204005+00:00",
        "meta_object_name": "FENGYUN 1C DEB",
        "meta_object_id": "1999-025DJS",
        "meta_epoch": "2025-12-15T11:31:21.871200",
        "meta_mean_motion": 14.17610468,
        "meta_eccentricity": 0.00548506,
        "meta_inclination": 99.1994,
        "meta_ra_of_asc_node": 2.2725,
        "meta_arg_of_pericenter": 7.0781,
        "meta_mean_anomaly": 353.1155,
        "meta_ephemeris_type": 0,
        "meta_classification_type": "U",
        "meta_norad_cat_id": 35090,
        "meta_element_set_no": 999,
        "meta_rev_at_epoch": 66289,
        "meta_bstar": 0.0011364277,
        "meta_mean_motion_dot": 2.298e-05,
        "meta_mean_motion_ddot": 0,
        "tle_line1": "1 35090U 99025DJS 25349.48011425  .00002298  00000+0  11364-2 0  9997",
        "tle_line2": "2 35090  99.1994   2.2725 0054850   7.0781 353.1155 14.17610468662895"
      },
      "geometry": {
        "type": "Point",
        "coordinates": [
          17.866942800849266,
          -44.76286092841831
        ]
      }
    },
    {
      "type": "Feature",
      "properties": {
        "norad_id": 35091,
        "name": "FENGYUN 1C DEB",
        "group": "fengyun-1c-debris",
        "lat": -70.8898872948426,
        "lon": -105.63490412666211,
        "alt_km": 660.7515056485399,
        "timestamp": "2025-12-21T14:40:48.204015+00:00",
        "meta_object_name": "FENGYUN 1C DEB",
        "meta_object_id": "1999-025DJT",
        "meta_epoch": "2025-12-19T05:40:00.748992",
        "meta_mean_motion": 14.61713207,
        "meta_eccentricity": 0.0049136,
        "meta_inclination": 98.5976,
        "meta_ra_of_asc_node": 97.7869,
        "meta_arg_of_pericenter": 271.6969,
        "meta_mean_anomaly": 87.8603,
        "meta_ephemeris_type": 0,
        "meta_classification_type": "U",
        "meta_norad_cat_id": 35091,
        "meta_element_set_no": 999,
        "meta_rev_at_epoch": 90022,
        "meta_bstar": 0.0018836,
        "meta_mean_motion_dot": 9.504e-05,
        "meta_mean_motion_ddot": 0,
        "tle_line1": "1 35091U 99025DJT 25353.23611978  .00009504  00000+0  18836-2 0  9993",
        "tle_line2": "2 35091  98.5976  97.7869 0049136 271.6969  87.8603 14.61713207900220"
      },
      "geometry": {
        "type": "Point",
        "coordinates": [
          -105.63490412666211,
          -70.8898872948426
        ]
      }
    },
    {
      "type": "Feature",
      "properties": {
        "norad_id": 35102,
        "name": "FENGYUN 1C DEB",
        "group": "fengyun-1c-debris",
        "lat": 77.54748270803586,
        "lon": -36.86014938912583,
        "alt_km": 746.0133679003038,
        "timestamp": "2025-12-21T14:40:48.204025+00:00",
        "meta_object_name": "FENGYUN 1C DEB",
        "meta_object_id": "1999-025DKE",
        "meta_epoch": "2025-12-13T06:19:02.409312",
        "meta_mean_motion": 14.28874039,
        "meta_eccentricity": 0.00607637,
        "meta_inclination": 98.4802,
        "meta_ra_of_asc_node": 357.5239,
        "meta_arg_of_pericenter": 90.2418,
        "meta_mean_anomaly": 270.5727,
        "meta_ephemeris_type": 0,
        "meta_classification_type": "U",
        "meta_norad_cat_id": 35102,
        "meta_element_set_no": 999,
        "meta_rev_at_epoch": 64920,
        "meta_bstar": 0.00073405609,
        "meta_mean_motion_dot": 1.848e-05,
        "meta_mean_motion_ddot": 0,
        "tle_line1": "1 35102U 99025DKE 25347.26322233  .00001848  00000+0  73406-3 0  9993",
        "tle_line2": "2 35102  98.4802 357.5239 0060763  90.2418 270.5727 14.28874039649201"
      },
      "geometry": {
        "type": "Point",
        "coordinates": [
          -36.86014938912583,
          77.54748270803586
        ]
      }
    },
    {
      "type": "Feature",
      "properties": {
        "norad_id": 35104,
        "name": "FENGYUN 1C DEB",
        "group": "fengyun-1c-debris",
        "lat": -28.14324125108489,
        "lon": 6.705189271166923,
        "alt_km": 848.3162355195709,
        "timestamp": "2025-12-21T14:40:48.204035+00:00",
        "meta_object_name": "FENGYUN 1C DEB",
        "meta_object_id": "1999-025DKG",
        "meta_epoch": "2025-12-20T06:46:17.192352",
        "meta_mean_motion": 14.20340868,
        "meta_eccentricity": 0.00314522,
        "meta_inclination": 98.5954,
        "meta_ra_of_asc_node": 0.7725,
        "meta_arg_of_pericenter": 119.6618,
        "meta_mean_anomaly": 257.8395,
        "meta_ephemeris_type": 0,
        "meta_classification_type": "U",
        "meta_norad_cat_id": 35104,
        "meta_element_set_no": 999,
        "meta_rev_at_epoch": 89874,
        "meta_bstar": 0.00030233796,
        "meta_mean_motion_dot": 6.08e-06,
        "meta_mean_motion_ddot": 0,
        "tle_line1": "1 35104U 99025DKG 25354.28214343  .00000608  00000+0  30234-3 0  9992",
        "tle_line2": "2 35104  98.5954   0.7725 0031452 119.6618 257.8395 14.20340868898744"
      },
      "geometry": {
        "type": "Point",
        "coordinates": [
          6.705189271166923,
          -28.14324125108489
        ]
      }
    },
    {
      "type": "Feature",
      "properties": {
        "norad_id": 35105,
        "name": "FENGYUN 1C DEB",
        "group": "fengyun-1c-debris",
        "lat": 81.0458386524454,
        "lon": -114.57549387086951,
        "alt_km": 695.0980829976133,
        "timestamp": "2025-12-21T14:40:48.204046+00:00",
        "meta_object_name": "FENGYUN 1C DEB",
        "meta_object_id": "1999-025DKH",
        "meta_epoch": "2025-12-20T16:40:27.119712",
        "meta_mean_motion": 14.45399411,
        "meta_eccentricity": 0.01124743,
        "meta_inclination": 98.9445,
        "meta_ra_of_asc_node": 336.168,
        "meta_arg_of_pericenter": 30.8771,
        "meta_mean_anomaly": 329.8969,
        "meta_ephemeris_type": 0,
        "meta_classification_type": "U",
        "meta_norad_cat_id": 35105,
        "meta_element_set_no": 999,
        "meta_rev_at_epoch": 94608,
        "meta_bstar": 0.00026626105,
        "meta_mean_motion_dot": 9.59e-06,
        "meta_mean_motion_ddot": 0,
        "tle_line1": "1 35105U 99025DKH 25354.69475833  .00000959  00000+0  26626-3 0  9990",
        "tle_line2": "2 35105  98.9445 336.1680 0112474  30.8771 329.8969 14.45399411946081"
      },
      "geometry": {
        "type": "Point",
        "coordinates": [
          -114.57549387086951,
          81.0458386524454
        ]
      }
    },
    {
      "type": "Feature",
      "properties": {
        "norad_id": 35108,
        "name": "FENGYUN 1C DEB",
        "group": "fengyun-1c-debris",
        "lat": -81.18332477346381,
        "lon": 78.22675056184198,
        "alt_km": 934.266097832262,
        "timestamp": "2025-12-21T14:40:48.204056+00:00",
        "meta_object_name": "FENGYUN 1C DEB",
        "meta_object_id": "1999-025DKL",
        "meta_epoch": "2025-12-14T17:32:43.265184",
        "meta_mean_motion": 14.06913766,
        "meta_eccentricity": 0.01353379,
        "meta_inclination": 98.801,
        "meta_ra_of_asc_node": 344.3103,
        "meta_arg_of_pericenter": 55.9263,
        "meta_mean_anomaly": 305.4667,
        "meta_ephemeris_type": 0,
        "meta_classification_type": "U",
        "meta_norad_cat_id": 35108,
        "meta_element_set_no": 999,
        "meta_rev_at_epoch": 89266,
        "meta_bstar": 0.00032621951,
        "meta_mean_motion_dot": 5.49e-06,
        "meta_mean_motion_ddot": 0,
        "tle_line1": "1 35108U 99025DKL 25348.73105631  .00000549  00000+0  32622-3 0  9995",
        "tle_line2": "2 35108  98.8010 344.3103 0135337  55.9263 305.4667 14.06913766892660"
      },
      "geometry": {
        "type": "Point",
        "coordinates": [
          78.22675056184198,
          -81.18332477346381
        ]
      }
    }
  ]
}